[{"OBJECT_NAME":"STARLINK-5905","OBJECT_ID":"2023-042A","EPOCH":"2026-03-09T22:31:17.200128","MEAN_MOTION":15.02535341,"ECCENTRICITY":0.00013511,"INCLINATION":43.0043,"RA_OF_ASC_NODE":55.1176,"ARG_OF_PERICENTER":275.5762,"MEAN_ANOMALY":84.4926,"EPHEMERIS_TYPE":0,"CLASSIFICATION_TYPE":"U","NORAD_CAT_ID":55986,"ELEMENT_SET_NO":999,"REV_AT_EPOCH":16376,"BSTAR":2.0543944e-5,"MEAN_MOTION_DOT":7.4e-7,"MEAN_MOTION_DDOT":0},{"OBJECT_NAME":"CZ-2D R\/B","OBJECT_ID":"2022-004B","EPOCH":"2026-03-09T22:50:52.634112","MEAN_MOTION":14.60339325,"ECCENTRICITY":0.04874226,"INCLINATION":98.4783,"RA_OF_ASC_NODE":157.6846,"ARG_OF_PERICENTER":297.671,"MEAN_ANOMALY":57.5829,"EPHEMERIS_TYPE":0,"CLASSIFICATION_TYPE":"U","NORAD_CAT_ID":51103,"ELEMENT_SET_NO":999,"REV_AT_EPOCH":21718,"BSTAR":0.00037005679,"MEAN_MOTION_DOT":0.00010482,"MEAN_MOTION_DDOT":0}]
